{"type": "FeatureCollection", "features": [ {"type": "Feature", "properties": {"norad_id": 38166, "name": "FENGYUN 1C DEB", "group": "fengyun-1c-debris", "lat": 2.923007975308811, "lon": 78.6082665663253, "alt_km": 780.4319693035413, "timestamp": "2025-12-02T10:50:47.564102+00:00", "meta": {"OBJECT_NAME": "FENGYUN 1C DEB", "OBJECT_ID": "1999-025ERP", "EPOCH": "2025-11-30T13:30:52.102656", "MEAN_MOTION": 14.30674225, "ECCENTRICITY": 0.0053782, "INCLINATION": 99.078, "RA_OF_ASC_NODE": 77.1051, "ARG_OF_PERICENTER": 81.5257, "MEAN_ANOMALY": 279.2015, "EPHEMERIS_TYPE": 0, "CLASSIFICATION_TYPE": "U", "NORAD_CAT_ID": 38166, "ELEMENT_SET_NO": 999, "REV_AT_EPOCH": 63598, "BSTAR": 0.0029439, "MEAN_MOTION_DOT": 7.779e-05, "MEAN_MOTION_DDOT": 0}, "tle": {"line1": "1 38166U 99025ERP 25334.56310304  .00007779  00000+0  29439-2 0  9996", "line2": "2 38166  99.0780  77.1051 0053782  81.5257 279.2015 14.30674225635984"}}, "geometry": {"type": "Point", "coordinates": [78.6082665663253, 2.923007975308811]}}, {"type": "Feature", "properties": {"norad_id": 38169, "name": "FENGYUN 1C DEB", "group": "fengyun-1c-debris", "lat": 80.8179065219683, "lon": -152.39285016709073, "alt_km": 629.2567449258349, "timestamp": "2025-12-02T10:50:47.564113+00:00", "meta": {"OBJECT_NAME": "FENGYUN 1C DEB", "OBJECT_ID": "1999-025ERS", "EPOCH": "2025-11-22T03:51:43.920000", "MEAN_MOTION": 14.70462609, "ECCENTRICITY": 0.00311315, "INCLINATION": 98.9783, "RA_OF_ASC_NODE": 298.2991, "ARG_OF_PERICENTER": 127.7379, "MEAN_ANOMALY": 232.6652, "EPHEMERIS_TYPE": 0, "CLASSIFICATION_TYPE": "U", "NORAD_CAT_ID": 38169, "ELEMENT_SET_NO": 999, "REV_AT_EPOCH": 60966, "BSTAR": 0.0026738914, "MEAN_MOTION_DOT": 0.00016302, "MEAN_MOTION_DDOT": 0}, "tle": {"line1": "1 38169U 99025ERS 25326.16092500  .00016302  00000+0  26739-2 0  9993", "line2": "2 38169  98.9783 298.2991 0031131 127.7379 232.6652 14.70462609609660"}}, "geometry": {"type": "Point", "coordinates": [-152.39285016709073, 80.8179065219683]}}, {"type": "Feature", "properties": {"norad_id": 38173, "name": "FENGYUN 1C DEB", "group": "fengyun-1c-debris", "lat": -44.56606921391541, "lon": 47.211617922192204, "alt_km": 757.4084473420007, "timestamp": "2025-12-02T10:50:47.564123+00:00", "meta": {"OBJECT_NAME": "FENGYUN 1C DEB", "OBJECT_ID": "1999-025ERW", "EPOCH": "2025-11-24T11:18:51.497568", "MEAN_MOTION": 14.37024249, "ECCENTRICITY": 0.01622994, "INCLINATION": 98.9991, "RA_OF_ASC_NODE": 227.8463, "ARG_OF_PERICENTER": 166.3393, "MEAN_ANOMALY": 194.2263, "EPHEMERIS_TYPE": 0, "CLASSIFICATION_TYPE": "U", "NORAD_CAT_ID": 38173, "ELEMENT_SET_NO": 999, "REV_AT_EPOCH": 60381, "BSTAR": 0.00095115, "MEAN_MOTION_DOT": 3.231e-05, "MEAN_MOTION_DDOT": 0}, "tle": {"line1": "1 38173U 99025ERW 25328.47142937  .00003231  00000+0  95115-3 0  9996", "line2": "2 38173  98.9991 227.8463 0162299 166.3393 194.2263 14.37024249603812"}}, "geometry": {"type": "Point", "coordinates": [47.211617922192204, -44.56606921391541]}}, {"type": "Feature", "properties": {"norad_id": 38491, "name": "FENGYUN 1C DEB", "group": "fengyun-1c-debris", "lat": 50.11302364688083, "lon": 173.80877787670966, "alt_km": 853.9880462014153, "timestamp": "2025-12-02T10:50:47.564133+00:00", "meta": {"OBJECT_NAME": "FENGYUN 1C DEB", "OBJECT_ID": "1999-025ESA", "EPOCH": "2025-11-07T18:37:17.530176", "MEAN_MOTION": 13.96213514, "ECCENTRICITY": 0.02268827, "INCLINATION": 98.9363, "RA_OF_ASC_NODE": 318.985, "ARG_OF_PERICENTER": 122.5823, "MEAN_ANOMALY": 239.7468, "EPHEMERIS_TYPE": 0, "CLASSIFICATION_TYPE": "U", "NORAD_CAT_ID": 38491, "ELEMENT_SET_NO": 999, "REV_AT_EPOCH": 65972, "BSTAR": 0.00032180703, "MEAN_MOTION_DOT": 5.09e-06, "MEAN_MOTION_DDOT": 0}, "tle": {"line1": "1 38491U 99025ESA 25311.77589734  .00000509  00000+0  32181-3 0  9993", "line2": "2 38491  98.9363 318.9850 0226882 122.5823 239.7468 13.96213514659723"}}, "geometry": {"type": "Point", "coordinates": [173.80877787670966, 50.11302364688083]}}, {"type": "Feature", "properties": {"norad_id": 38492, "name": "FENGYUN 1C DEB", "group": "fengyun-1c-debris", "lat": 32.28108585302985, "lon": -125.58059152809179, "alt_km": 767.0929840140279, "timestamp": "2025-12-02T10:50:47.564143+00:00", "meta": {"OBJECT_NAME": "FENGYUN 1C DEB", "OBJECT_ID": "1999-025ESB", "EPOCH": "2025-11-07T22:24:32.618304", "MEAN_MOTION": 13.93045648, "ECCENTRICITY": 0.02334575, "INCLINATION": 98.6097, "RA_OF_ASC_NODE": 26.0841, "ARG_OF_PERICENTER": 245.4391, "MEAN_ANOMALY": 112.2279, "EPHEMERIS_TYPE": 0, "CLASSIFICATION_TYPE": "U", "NORAD_CAT_ID": 38492, "ELEMENT_SET_NO": 999, "REV_AT_EPOCH": 55519, "BSTAR": 0.0058484062, "MEAN_MOTION_DOT": 9.486e-05, "MEAN_MOTION_DDOT": 0}, "tle": {"line1": "1 38492U 99025ESB 25311.93371086  .00009486  00000+0  58484-2 0  9997", "line2": "2 38492  98.6097  26.0841 0233457 245.4391 112.2279 13.93045648555192"}}, "geometry": {"type": "Point", "coordinates": [-125.58059152809179, 32.28108585302985]}}, {"type": "Feature", "properties": {"norad_id": 38493, "name": "FENGYUN 1C DEB", "group": "fengyun-1c-debris", "lat": -42.28948901014136, "lon": -55.11410384284148, "alt_km": 804.5208111191141, "timestamp": "2025-12-02T10:50:47.564153+00:00", "meta": {"OBJECT_NAME": "FENGYUN 1C DEB", "OBJECT_ID": "1999-025ESC", "EPOCH": "2025-12-01T03:19:18.848640", "MEAN_MOTION": 13.62296981, "ECCENTRICITY": 0.04264899, "INCLINATION": 99.0772, "RA_OF_ASC_NODE": 295.2979, "ARG_OF_PERICENTER": 275.3931, "MEAN_ANOMALY": 79.8712, "EPHEMERIS_TYPE": 0, "CLASSIFICATION_TYPE": "U", "NORAD_CAT_ID": 38493, "ELEMENT_SET_NO": 999, "REV_AT_EPOCH": 56340, "BSTAR": 0.00048230888, "MEAN_MOTION_DOT": 6.45e-06, "MEAN_MOTION_DDOT": 0}, "tle": {"line1": "1 38493U 99025ESC 25335.13841260  .00000645  00000+0  48231-3 0  9990", "line2": "2 38493  99.0772 295.2979 0426489 275.3931  79.8712 13.62296981563408"}}, "geometry": {"type": "Point", "coordinates": [-55.11410384284148, -42.28948901014136]}}, {"type": "Feature", "properties": {"norad_id": 38494, "name": "FENGYUN 1C DEB", "group": "fengyun-1c-debris", "lat": 18.644053976316528, "lon": -75.44184292910576, "alt_km": 627.9132534824857, "timestamp": "2025-12-02T10:50:47.564163+00:00", "meta": {"OBJECT_NAME": "FENGYUN 1C DEB", "OBJECT_ID": "1999-025ESD", "EPOCH": "2025-11-30T02:08:48.245856", "MEAN_MOTION": 13.99599294, "ECCENTRICITY": 0.0387254, "INCLINATION": 98.433, "RA_OF_ASC_NODE": 285.2437, "ARG_OF_PERICENTER": 44.6936, "MEAN_ANOMALY": 318.476, "EPHEMERIS_TYPE": 0, "CLASSIFICATION_TYPE": "U", "NORAD_CAT_ID": 38494, "ELEMENT_SET_NO": 999, "REV_AT_EPOCH": 6977, "BSTAR": 0.0054391, "MEAN_MOTION_DOT": 0.00015208, "MEAN_MOTION_DDOT": 0}, "tle": {"line1": "1 38494U 99025ESD 25334.08944729  .00015208  00000+0  54391-2 0  9992", "line2": "2 38494  98.4330 285.2437 0387254  44.6936 318.4760 13.99599294 69777"}}, "geometry": {"type": "Point", "coordinates": [-75.44184292910576, 18.644053976316528]}}, {"type": "Feature", "properties": {"norad_id": 38496, "name": "FENGYUN 1C DEB", "group": "fengyun-1c-debris", "lat": -74.65369421664235, "lon": 132.25425279947618, "alt_km": 909.1223747596414, "timestamp": "2025-12-02T10:50:47.564173+00:00", "meta": {"OBJECT_NAME": "FENGYUN 1C DEB", "OBJECT_ID": "1999-025ESF", "EPOCH": "2025-11-21T06:14:04.243776", "MEAN_MOTION": 14.09910223, "ECCENTRICITY": 0.00783122, "INCLINATION": 98.762, "RA_OF_ASC_NODE": 335.5484, "ARG_OF_PERICENTER": 67.5314, "MEAN_ANOMALY": 293.4126, "EPHEMERIS_TYPE": 0, "CLASSIFICATION_TYPE": "U", "NORAD_CAT_ID": 38496, "ELEMENT_SET_NO": 999, "REV_AT_EPOCH": 80718, "BSTAR": 0.00099539788, "MEAN_MOTION_DOT": 1.761e-05, "MEAN_MOTION_DDOT": 0}, "tle": {"line1": "1 38496U 99025ESF 25325.25977134  .00001761  00000+0  99540-3 0  9994", "line2": "2 38496  98.7620 335.5484 0078312  67.5314 293.4126 14.09910223807185"}}, "geometry": {"type": "Point", "coordinates": [132.25425279947618, -74.65369421664235]}}, {"type": "Feature", "properties": {"norad_id": 38498, "name": "FENGYUN 1C DEB", "group": "fengyun-1c-debris", "lat": -52.80558874233188, "lon": 10.861749183974716, "alt_km": 1643.022277553202, "timestamp": "2025-12-02T10:50:47.564183+00:00", "meta": {"OBJECT_NAME": "FENGYUN 1C DEB", "OBJECT_ID": "1999-025ESH", "EPOCH": "2025-11-28T07:08:06.502272", "MEAN_MOTION": 12.96576725, "ECCENTRICITY": 0.05570408, "INCLINATION": 99.7006, "RA_OF_ASC_NODE": 354.1331, "ARG_OF_PERICENTER": 105.0179, "MEAN_ANOMALY": 261.3245, "EPHEMERIS_TYPE": 0, "CLASSIFICATION_TYPE": "U", "NORAD_CAT_ID": 38498, "ELEMENT_SET_NO": 999, "REV_AT_EPOCH": 53556, "BSTAR": 0.0025758927, "MEAN_MOTION_DOT": 1.475e-05, "MEAN_MOTION_DDOT": 0}, "tle": {"line1": "1 38498U 99025ESH 25332.29729748  .00001475  00000+0  25759-2 0  9996", "line2": "2 38498  99.7006 354.1331 0557040 105.0179 261.3245 12.96576725535566"}}, "geometry": {"type": "Point", "coordinates": [10.861749183974716, -52.80558874233188]}}, {"type": "Feature", "properties": {"norad_id": 38510, "name": "FENGYUN 1C DEB", "group": "fengyun-1c-debris", "lat": 77.04376670267054, "lon": -152.92804144528412, "alt_km": 827.408037358733, "timestamp": "2025-12-02T10:50:47.564193+00:00", "meta": {"OBJECT_NAME": "FENGYUN 1C DEB", "OBJECT_ID": "1999-025ESV", "EPOCH": "2025-11-26T06:32:42.236448", "MEAN_MOTION": 14.13269737, "ECCENTRICITY": 0.00981735, "INCLINATION": 98.6025, "RA_OF_ASC_NODE": 339.985, "ARG_OF_PERICENTER": 196.9618, "MEAN_ANOMALY": 162.8266, "EPHEMERIS_TYPE": 0, "CLASSIFICATION_TYPE": "U", "NORAD_CAT_ID": 38510, "ELEMENT_SET_NO": 999, "REV_AT_EPOCH": 88437, "BSTAR": 0.0006714866, "MEAN_MOTION_DOT": 1.276e-05, "MEAN_MOTION_DDOT": 0}, "tle": {"line1": "1 38510U 99025ESV 25330.27271107  .00001276  00000+0  67149-3 0  9997", "line2": "2 38510  98.6025 339.9850 0098173 196.9618 162.8266 14.13269737884378"}}, "geometry": {"type": "Point", "coordinates": [-152.92804144528412, 77.04376670267054]}}]}